NORAD_CAT_ID,OBJECT_NAME,OBJECT_TYPE,EPOCH,MEAN_MOTION,ECCENTRICITY,INCLINATION,RA_OF_ASC_NODE,ARG_OF_PERICENTER,MEAN_ANOMALY,BSTAR,MEAN_MOTION_DOT,MEAN_MOTION_DDOT,TLE_LINE0,TLE_LINE1,TLE_LINE2,SEMIMAJOR_AXIS,PERIOD,APOGEE,PERIGEE,DECAYED
52609.0,STARLINK-3997,PAYLOAD,2022-09-16 10:02:58,15.08836584,0.000202,53.2184,221.5919,45.8822,314.2337,2.0472e-05,3.8e-07,0.0,0 STARLINK-3997,1 52609U 22052M   22259.41873553  .00000038  00000-0  20472-4 0  9999,2 52609  53.2184 221.5919 0002020  45.8822 314.2337 15.08836584 19460,6917.891,95.438,541.153,538.3580000000002,0.0
52609.0,STARLINK-3997,PAYLOAD,2022-09-16 14:49:08,15.08837211,0.0001886999999999,53.2182,220.6994,47.2784,312.8367,0.00011726,1.578e-05,0.0,0 STARLINK-3997,1 52609U 22052M   22259.61745577  .00001578  00000-0  11726-3 0  9996,2 52609  53.2182 220.6994 0001887  47.2784 312.8367 15.08837211 19122,6917.889,95.438,541.059,538.4490000000002,0.0
52609.0,STARLINK-3997,PAYLOAD,2022-09-17 03:32:13,15.08827308,0.0001914,53.2183,218.321,46.552,313.5631,1.7219000000000002e-05,-1.4e-07,0.0,0 STARLINK-3997,1 52609U 22052M   22260.14738350 -.00000014  00000-0  17219-4 0  9996,2 52609  53.2183 218.3210 0001914  46.5520 313.5631 15.08827308 19576,6917.919,95.438,541.1080000000002,538.46,0.0
52609.0,STARLINK-3997,PAYLOAD,2022-09-17 09:53:46,15.08830974,0.0001914,53.2182,217.1316,46.7814,313.3338,7.6097e-05,9.23e-06,0.0,0 STARLINK-3997,1 52609U 22052M   22260.41234422  .00000923  00000-0  76097-4 0  9994,2 52609  53.2182 217.1316 0001914  46.7814 313.3338 15.08830974 19246,6917.908,95.438,541.097,538.4490000000002,0.0
52609.0,STARLINK-3997,PAYLOAD,2022-09-17 14:39:55,15.08835496,0.0001942,53.2183,216.2397,47.0567,313.0588,0.00012649,1.725e-05,0.0,0 STARLINK-3997,1 52609U 22052M   22260.61106351  .00001725  00000-0  12649-3 0  9998,2 52609  53.2183 216.2397 0001942  47.0567 313.0588 15.08835496 19277,6917.894,95.438,541.1030000000002,538.4159999999998,0.0
52609.0,STARLINK-3997,PAYLOAD,2022-09-18 03:23:00,15.08844479,0.0001966999999999,53.2182,213.8608,47.9591,312.1568,0.00014545,2.028e-05,0.0,0 STARLINK-3997,1 52609U 22052M   22261.14098040  .00002028  00000-0  14545-3 0  9996,2 52609  53.2182 213.8608 0001967  47.9591 312.1568 15.08844479 19726,6917.8669999999975,95.437,541.092,538.371,0.0
52609.0,STARLINK-3997,PAYLOAD,2022-09-18 08:09:09,15.08849122,0.0001953,53.2183,212.9688,49.8693,310.247,0.00021933,3.205e-05,0.0,0 STARLINK-3997,1 52609U 22052M   22261.33969839  .00003205  00000-0  21933-3 0  9997,2 52609  53.2183 212.9688 0001953  49.8693 310.2470 15.08849122 19387,6917.853,95.437,541.069,538.366,0.0
52609.0,STARLINK-3997,PAYLOAD,2022-09-18 14:30:42,15.08853521,0.0001978,53.218,211.7795,49.1912,310.9252,0.000437,6.676e-05,0.0,0 STARLINK-3997,1 52609U 22052M   22261.60465784  .00006676  00000-0  43700-3 0  9998,2 52609  53.2180 211.7795 0001978  49.1912 310.9252 15.08853521 19422,6917.839,95.437,541.072,538.336,0.0
52609.0,STARLINK-3997,PAYLOAD,2022-09-19 07:59:56,15.08857479,0.0001978,53.218,208.5087,49.9174,310.1991,0.00045494,6.963e-05,0.0,0 STARLINK-3997,1 52609U 22052M   22262.33329600  .00006963  00000-0  45494-3 0  9996,2 52609  53.2180 208.5087 0001978  49.9174 310.1991 15.08857479 19909,6917.8269999999975,95.436,541.06,538.3240000000002,0.0
52609.0,STARLINK-3997,PAYLOAD,2022-09-19 20:43:01,15.08848194,0.0002081,53.2182,206.1295,49.5246,310.5928,0.00016091,2.274e-05,0.0,0 STARLINK-3997,1 52609U 22052M   22262.86321665  .00002274  00000-0  16091-3 0  9999,2 52609  53.2182 206.1295 0002081  49.5246 310.5928 15.08848194 19614,6917.855,95.437,541.16,538.281,0.0
52609.0,STARLINK-3997,PAYLOAD,2022-09-20 03:04:34,15.08848751,0.0002004,53.2181,204.9404,34.1778,325.9343,0.00025874,3.833e-05,0.0,0 STARLINK-3997,1 52609U 22052M   22263.12817564  .00003833  00000-0  25874-3 0  9998,2 52609  53.2181 204.9404 0002004  34.1778 325.9343 15.08848751 20023,6917.854,95.437,541.105,538.332,0.0
52609.0,STARLINK-3997,PAYLOAD,2022-09-20 07:50:44,15.08840998,0.0002130999999999,53.2184,204.0491,50.1655,309.9524,4.3026e-05,3.97e-06,0.0,0 STARLINK-3997,1 52609U 22052M   22263.32689885  .00000397  00000-0  43026-4 0  9995,2 52609  53.2184 204.0491 0002131  50.1655 309.9524 15.08840998 20057,6917.877,95.437,541.217,538.268,0.0
52609.0,STARLINK-3997,PAYLOAD,2022-09-20 12:36:53,15.08841911,0.0002110999999999,53.2182,203.157,48.0164,312.1007,0.00013558,1.87e-05,0.0,0 STARLINK-3997,1 52609U 22052M   22263.52561800  .00001870  00000-0  13558-3 0  9996,2 52609  53.2182 203.1570 0002111  48.0164 312.1007 15.08841911 19711,6917.875,95.437,541.2,538.279,0.0
52609.0,STARLINK-3997,PAYLOAD,2022-09-21 12:27:40,15.08837801,0.0001818,53.2183,198.6967,48.8746,311.2403,9.4606e-05,1.218e-05,0.0,0 STARLINK-3997,1 52609U 22052M   22264.51922187  .00001218  00000-0  94606-4 0  9995,2 52609  53.2183 198.6967 0001818  48.8746 311.2403 15.08837801 19866,6917.887,95.438,541.01,538.494,0.0
52609.0,STARLINK-3997,PAYLOAD,2022-09-22 02:46:09,15.08833378,0.0001925,53.2185,196.0209,53.7248,306.3922,8.6764e-06,-1.5e-06,0.0,0 STARLINK-3997,1 52609U 22052M   22265.11538755 -.00000150  00000-0  86764-5 0  9998,2 52609  53.2185 196.0209 0001925  53.7248 306.3922 15.08833378 20329,6917.901,95.438,541.097,538.434,0.0
52609.0,STARLINK-3997,PAYLOAD,2022-09-22 12:18:28,15.08835658,0.0001848,53.2186,194.237,50.1075,310.0079,0.00013154,1.806e-05,0.0,0 STARLINK-3997,1 52609U 22052M   22265.51282853  .00001806  00000-0  13154-3 0  9996,2 52609  53.2186 194.2370 0001848  50.1075 310.0079 15.08835658 20016,6917.894,95.438,541.0369999999998,538.48,0.0
52609.0,STARLINK-3997,PAYLOAD,2022-09-23 07:23:06,15.08834401,0.0001808,53.2186,190.6684,50.1056,310.0095,0.00010557,1.392e-05,0.0,0 STARLINK-3997,1 52609U 22052M   22266.30771229  .00001392  00000-0  10557-3 0  9998,2 52609  53.2186 190.6684 0001808  50.1056 310.0095 15.08834401 20135,6917.898,95.438,541.013,538.512,0.0
52609.0,STARLINK-3997,PAYLOAD,2022-09-24 02:27:43,15.08853962,0.0001919,53.2186,187.1002,50.1843,309.9318,0.0004748999999999,7.281e-05,0.0,0 STARLINK-3997,1 52609U 22052M   22267.10258742  .00007281  00000-0  47490-3 0  9996,2 52609  53.2186 187.1002 0001919  50.1843 309.9318 15.08853962 20629,6917.8380000000025,95.437,541.03,538.375,0.0
52609.0,STARLINK-3997,PAYLOAD,2022-09-24 07:13:52,15.08862055,0.0001916,53.2184,186.2081,50.0796,310.0364,0.00079388,0.00012377,0.0,0 STARLINK-3997,1 52609U 22052M   22267.30130533  .00012377  00000-0  79388-3 0  9998,2 52609  53.2184 186.2081 0001916  50.0796 310.0364 15.08862055 20286,6917.813,95.436,541.003,538.3530000000002,0.0
52609.0,STARLINK-3997,PAYLOAD,2022-09-25 00:43:07,15.08849822,0.0001993,53.2184,182.9374,51.6446,308.4725,0.00018354,2.635e-05,0.0,0 STARLINK-3997,1 52609U 22052M   22268.02994292  .00002635  00000-0  18354-3 0  9990,2 52609  53.2184 182.9374 0001993  51.6446 308.4725 15.08849822 20399,6917.85,95.437,541.094,538.337,0.0
52609.0,STARLINK-3997,PAYLOAD,2022-09-25 16:36:58,15.08849914,0.0002054,53.2186,179.9639,54.5319,305.5864,0.00041841,6.379e-05,0.0,0 STARLINK-3997,1 52609U 22052M   22268.69234065  .00006379  00000-0  41841-3 0  9994,2 52609  53.2186 179.9639 0002054  54.5319 305.5864 15.08849914 20496,6917.85,95.437,541.136,538.294,0.0
52609.0,STARLINK-3997,PAYLOAD,2022-09-26 00:33:54,15.08838475,0.0002029,53.2188,178.4773,38.0839,322.0296,-2.5294e-05,-6.91e-06,0.0,0 STARLINK-3997,1 52609U 22052M   22269.02354314 -.00000691  00000-0 -25294-4 0  9990,2 52609  53.2188 178.4773 0002029  38.0839 322.0296 15.08838475 20917,6917.885,95.438,541.154,538.346,0.0
52609.0,STARLINK-3997,PAYLOAD,2022-09-27 00:24:41,15.08842577,0.0002184,53.2203,174.0185,44.1651,315.9515,0.00020394,2.959e-05,0.0,0 STARLINK-3997,1 52609U 22052M   22270.01714770  .00002959  00000-0  20394-3 0  9999,2 52609  53.2203 174.0185 0002184  44.1651 315.9515 15.08842577 20694,6917.873000000001,95.437,541.248,538.227,0.0
52609.0,STARLINK-3997,PAYLOAD,2022-09-28 00:15:28,15.08856372,0.0002325,53.2205,169.5589,48.9695,311.1498,0.00054044,8.327e-05,0.0,0 STARLINK-3997,1 52609U 22052M   22271.01074518  .00008327  00000-0  54044-3 0  9993,2 52609  53.2205 169.5589 0002325  48.9695 311.1498 15.08856372 21215,6917.83,95.437,541.304,538.087,0.0
52609.0,STARLINK-3997,PAYLOAD,2022-09-28 12:58:32,15.08863003,0.0001849,53.2184,167.1793,56.1144,304.0024,0.00041656,6.352e-05,0.0,0 STARLINK-3997,1 52609U 22052M   22271.54065602  .00006352  00000-0  41656-3 0  9996,2 52609  53.2184 167.1793 0001849  56.1144 304.0024 15.08863003 20924,6917.81,95.436,540.9540000000002,538.396,0.0
52609.0,STARLINK-3997,PAYLOAD,2022-09-28 17:44:42,15.08855822,0.0002017,53.2192,166.2877,33.3697,326.7422,0.00018736,2.696e-05,0.0,0 STARLINK-3997,1 52609U 22052M   22271.73937611  .00002696  00000-0  18736-3 0  9995,2 52609  53.2192 166.2877 0002017  33.3697 326.7422 15.08855822 21322,6917.831999999999,95.437,541.092,538.302,0.0
52609.0,STARLINK-3997,PAYLOAD,2022-09-28 20:55:28,15.08852798,0.0001776,53.2181,165.6915,55.2566,304.8593,0.00010739,1.422e-05,0.0,0 STARLINK-3997,1 52609U 22052M   22271.87185573  .00001422  00000-0  10739-3 0  9993,2 52609  53.2181 165.6915 0001776  55.2566 304.8593 15.08852798 20970,6917.840999999999,95.437,540.935,538.4780000000002,0.0
52609.0,STARLINK-3997,PAYLOAD,2022-09-29 01:41:38,15.08838284,0.0001937,53.2185,164.8,50.5629,309.5535,-0.00033678,-5.644e-05,0.0,0 STARLINK-3997,1 52609U 22052M   22272.07057896 -.00005644  00000-0 -33678-3 0  9991,2 52609  53.2185 164.8000 0001937  50.5629 309.5535 15.08838284 21374,6917.886,95.438,541.091,538.411,0.0
52609.0,STARLINK-3997,PAYLOAD,2022-09-29 09:38:34,15.08819001,0.000226,53.2186,163.3127,47.8573,312.261,-0.00063923,-0.00010442,0.0,0 STARLINK-3997,1 52609U 22052M   22272.40178743 -.00010442  00000-0 -63923-3 0  9991,2 52609  53.2186 163.3127 0002260  47.8573 312.2610 15.08819001 21052,6917.945,95.439,541.373,538.246,0.0
